{"type": "FeatureCollection", "features": [{"type": "Feature", "geometry": {"type": "Point", "coordinates": [138.7290828, 35.3284815]}, "properties": {"id": "p00000", "name": "주차장", "kind": "surface", "capacity": null, "fee": null, "access": null, "operator": "七曲り駐 場", "near_route": "m072-r0", "mountain_no": 72, "dist_to_trailhead_m": 1014, "osm_id": "w837113168"}}, {"type": "Feature", "geometry": {"type": "Point", "coordinates": [138.732437, 35.3369326]}, "properties": {"id": "p00001", "name": "주차장", "kind": "surface", "capacity": null, "fee": null, "access": null, "operator": null, "near_route": "m072-r0", "mountain_no": 72, "dist_to_trailhead_m": 158, "osm_id": "w837113170"}}, {"type": "Feature", "geometry": {"type": "Point", "coordinates": [138.202064, 36.1368718]}, "properties": {"id": "p00002", "name": "P2", "kind": "surface", "capacity": null, "fee": null, "access": null, "operator": null, "near_route": "m062-r0", "mountain_no": 62, "dist_to_trailhead_m": 1053, "osm_id": "w664629841"}}, {"type": "Feature", "geometry": {"type": "Point", "coordinates": [144.0850716, 43.4246648]}, "properties": {"id": "p00003", "name": "주차장", "kind": "surface", "capacity": null, "fee": null, "access": null, "operator": null, "near_route": "m004-r2", "mountain_no": 4, "dist_to_trailhead_m": 890, "osm_id": "w321406619"}}, {"type": "Feature", "geometry": {"type": "Point", "coordinates": [137.5952639, 36.5769325]}, "properties": {"id": "p00004", "name": "주차장", "kind": "surface", "capacity": null, "fee": null, "access": null, "operator": null, "near_route": "m049-r2", "mountain_no": 49, "dist_to_trailhead_m": 634, "osm_id": "w197896240"}}, {"type": "Feature", "geometry": {"type": "Point", "coordinates": [137.5959553, 36.5767195]}, "properties": {"id": "p00005", "name": "주차장", "kind": "surface", "capacity": null, "fee": null, "access": null, "operator": null, "near_route": "m049-r2", "mountain_no": 49, "dist_to_trailhead_m": 575, "osm_id": "w689102523"}}, {"type": "Feature", "geometry": {"type": "Point", "coordinates": [137.5935437, 36.5763334]}, "properties": {"id": "p00006", "name": "주차장", "kind": "surface", "capacity": null, "fee": null, "access": null, "operator": null, "near_route": "m049-r2", "mountain_no": 49, "dist_to_trailhead_m": 795, "osm_id": "w689102525"}}, {"type": "Feature", "geometry": {"type": "Point", "coordinates": [140.7823573, 42.7890668]}, "properties": {"id": "p00007", "name": "주차장", "kind": "surface", "capacity": null, "fee": null, "access": null, "operator": null, "near_route": "m009-r0", "mountain_no": 9, "dist_to_trailhead_m": 1033, "osm_id": "w429221857"}}, {"type": "Feature", "geometry": {"type": "Point", "coordinates": [140.7851763, 42.7946791]}, "properties": {"id": "p00008", "name": "주차장", "kind": "surface", "capacity": null, "fee": null, "access": null, "operator": null, "near_route": "m009-r0", "mountain_no": 9, "dist_to_trailhead_m": 368, "osm_id": "w429221871"}}, {"type": "Feature", "geometry": {"type": "Point", "coordinates": [140.7861918, 42.7942141]}, "properties": {"id": "p00009", "name": "주차장", "kind": "surface", "capacity": null, "fee": null, "access": null, "operator": null, "near_route": "m009-r0", "mountain_no": 9, "dist_to_trailhead_m": 396, "osm_id": "w1022480686"}}, {"type": "Feature", "geometry": {"type": "Point", "coordinates": [139.3805039, 36.8201419]}, "properties": {"id": "p00010", "name": "주차장", "kind": "surface", "capacity": null, "fee": null, "access": null, "operator": null, "near_route": "m037-r1", "mountain_no": 37, "dist_to_trailhead_m": 184, "osm_id": "w584833403"}}, {"type": "Feature", "geometry": {"type": "Point", "coordinates": [139.3798488, 36.8208024]}, "properties": {"id": "p00011", "name": "주차장", "kind": "surface", "capacity": null, "fee": null, "access": null, "operator": null, "near_route": "m037-r1", "mountain_no": 37, "dist_to_trailhead_m": 147, "osm_id": "w584833404"}}, {"type": "Feature", "geometry": {"type": "Point", "coordinates": [139.3787907, 36.8208748]}, "properties": {"id": "p00012", "name": "주차장", "kind": "surface", "capacity": null, "fee": null, "access": null, "operator": null, "near_route": "m037-r1", "mountain_no": 37, "dist_to_trailhead_m": 219, "osm_id": "w817751256"}}, {"type": "Feature", "geometry": {"type": "Point", "coordinates": [139.4878166, 36.7411881]}, "properties": {"id": "p00013", "name": "주차장", "kind": "surface", "capacity": null, "fee": null, "access": null, "operator": null, "near_route": "m036-r0", "mountain_no": 36, "dist_to_trailhead_m": 77, "osm_id": "n2722801734"}}, {"type": "Feature", "geometry": {"type": "Point", "coordinates": [139.4909516, 36.7313225]}, "properties": {"id": "p00014", "name": "歌が浜無料駐車場", "kind": "surface", "capacity": null, "fee": "yes", "access": null, "operator": null, "near_route": "m036-r0", "mountain_no": 36, "dist_to_trailhead_m": 1154, "osm_id": "w418292930"}}, {"type": "Feature", "geometry": {"type": "Point", "coordinates": [139.4999661, 36.7391093]}, "properties": {"id": "p00015", "name": "주차장", "kind": "surface", "capacity": null, "fee": "yes", "access": null, "operator": null, "near_route": "m036-r0", "mountain_no": 36, "dist_to_trailhead_m": 1182, "osm_id": "w431809448"}}, {"type": "Feature", "geometry": {"type": "Point", "coordinates": [139.4920103, 36.7319243]}, "properties": {"id": "p00016", "name": "주차장", "kind": "surface", "capacity": null, "fee": null, "access": null, "operator": null, "near_route": "m036-r0", "mountain_no": 36, "dist_to_trailhead_m": 1125, "osm_id": "w434923004"}}, {"type": "Feature", "geometry": {"type": "Point", "coordinates": [139.4925266, 36.733287]}, "properties": {"id": "p00017", "name": "주차장", "kind": "surface", "capacity": null, "fee": null, "access": null, "operator": null, "near_route": "m036-r0", "mountain_no": 36, "dist_to_trailhead_m": 1010, "osm_id": "w435049986"}}, {"type": "Feature", "geometry": {"type": "Point", "coordinates": [139.4865628, 36.7406821]}, "properties": {"id": "p00018", "name": "주차장", "kind": "surface", "capacity": null, "fee": null, "access": null, "operator": null, "near_route": "m036-r0", "mountain_no": 36, "dist_to_trailhead_m": 67, "osm_id": "w917594602"}}, {"type": "Feature", "geometry": {"type": "Point", "coordinates": [139.4925888, 36.7411433]}, "properties": {"id": "p00019", "name": "주차장", "kind": "multi-storey", "capacity": null, "fee": null, "access": null, "operator": null, "near_route": "m036-r0", "mountain_no": 36, "dist_to_trailhead_m": 502, "osm_id": "w917594621"}}, {"type": "Feature", "geometry": {"type": "Point", "coordinates": [139.4922572, 36.7399787]}, "properties": {"id": "p00020", "name": "주차장", "kind": "surface", "capacity": null, "fee": null, "access": null, "operator": null, "near_route": "m036-r0", "mountain_no": 36, "dist_to_trailhead_m": 491, "osm_id": "w917594661"}}, {"type": "Feature", "geometry": {"type": "Point", "coordinates": [139.495595, 36.7404271]}, "properties": {"id": "p00021", "name": "주차장", "kind": "surface", "capacity": null, "fee": null, "access": null, "operator": null, "near_route": "m036-r0", "mountain_no": 36, "dist_to_trailhead_m": 775, "osm_id": "w917594678"}}, {"type": "Feature", "geometry": {"type": "Point", "coordinates": [139.4944013, 36.7406257]}, "properties": {"id": "p00022", "name": "주차장", "kind": "surface", "capacity": null, "fee": null, "access": null, "operator": null, "near_route": "m036-r0", "mountain_no": 36, "dist_to_trailhead_m": 667, "osm_id": "w917594682"}}, {"type": "Feature", "geometry": {"type": "Point", "coordinates": [139.4962319, 36.7405891]}, "properties": {"id": "p00023", "name": "주차장", "kind": "surface", "capacity": null, "fee": null, "access": null, "operator": null, "near_route": "m036-r0", "mountain_no": 36, "dist_to_trailhead_m": 829, "osm_id": "w917594683"}}, {"type": "Feature", "geometry": {"type": "Point", "coordinates": [139.4962147, 36.7369694]}, "properties": {"id": "p00024", "name": "주차장", "kind": "surface", "capacity": null, "fee": null, "access": null, "operator": null, "near_route": "m036-r0", "mountain_no": 36, "dist_to_trailhead_m": 949, "osm_id": "w917594704"}}, {"type": "Feature", "geometry": {"type": "Point", "coordinates": [139.4851689, 36.7416966]}, "properties": {"id": "p00025", "name": "주차장", "kind": "surface", "capacity": null, "fee": null, "access": null, "operator": null, "near_route": "m036-r0", "mountain_no": 36, "dist_to_trailhead_m": 169, "osm_id": "w917747317"}}, {"type": "Feature", "geometry": {"type": "Point", "coordinates": [139.4911565, 36.7403145]}, "properties": {"id": "p00026", "name": "주차장", "kind": "surface", "capacity": "3", "fee": "no", "access": "customers", "operator": "Cafe Adonis", "near_route": "m036-r0", "mountain_no": 36, "dist_to_trailhead_m": 387, "osm_id": "w1188530238"}}, {"type": "Feature", "geometry": {"type": "Point", "coordinates": [139.490564, 36.7305501]}, "properties": {"id": "p00027", "name": "주차장", "kind": "surface", "capacity": null, "fee": "yes", "access": "no", "operator": null, "near_route": "m036-r0", "mountain_no": 36, "dist_to_trailhead_m": 1226, "osm_id": "w1389417840"}}, {"type": "Feature", "geometry": {"type": "Point", "coordinates": [140.758787, 42.8460443]}, "properties": {"id": "p00028", "name": "주차장", "kind": "surface", "capacity": null, "fee": null, "access": null, "operator": null, "near_route": "m009-r1", "mountain_no": 9, "dist_to_trailhead_m": 86, "osm_id": "w342421428"}}, {"type": "Feature", "geometry": {"type": "Point", "coordinates": [140.7523983, 42.8462804]}, "properties": {"id": "p00029", "name": "주차장", "kind": "surface", "capacity": null, "fee": null, "access": null, "operator": null, "near_route": "m009-r1", "mountain_no": 9, "dist_to_trailhead_m": 604, "osm_id": "w342421430"}}, {"type": "Feature", "geometry": {"type": "Point", "coordinates": [140.7518983, 42.8464199]}, "properties": {"id": "p00030", "name": "주차장", "kind": "surface", "capacity": null, "fee": null, "access": null, "operator": null, "near_route": "m009-r1", "mountain_no": 9, "dist_to_trailhead_m": 646, "osm_id": "w727995444"}}, {"type": "Feature", "geometry": {"type": "Point", "coordinates": [142.7991057, 43.6519014]}, "properties": {"id": "p00031", "name": "旭岳公共駐車場", "kind": "surface", "capacity": null, "fee": "no", "access": "yes", "operator": null, "near_route": "m005-r2", "mountain_no": 5, "dist_to_trailhead_m": 978, "osm_id": "w233365968"}}, {"type": "Feature", "geometry": {"type": "Point", "coordinates": [142.7980698, 43.6529802]}, "properties": {"id": "p00032", "name": "주차장", "kind": "surface", "capacity": null, "fee": "yes", "access": "yes", "operator": null, "near_route": "m005-r2", "mountain_no": 5, "dist_to_trailhead_m": 1065, "osm_id": "w233365969"}}, {"type": "Feature", "geometry": {"type": "Point", "coordinates": [142.7985785, 43.6507386]}, "properties": {"id": "p00033", "name": "주차장", "kind": "surface", "capacity": null, "fee": null, "access": null, "operator": null, "near_route": "m005-r2", "mountain_no": 5, "dist_to_trailhead_m": 843, "osm_id": "w485604722"}}, {"type": "Feature", "geometry": {"type": "Point", "coordinates": [142.7940014, 43.6480682]}, "properties": {"id": "p00034", "name": "주차장", "kind": "surface", "capacity": null, "fee": null, "access": null, "operator": null, "near_route": "m005-r2", "mountain_no": 5, "dist_to_trailhead_m": 481, "osm_id": "w485604728"}}, {"type": "Feature", "geometry": {"type": "Point", "coordinates": [142.7872554, 43.6482371]}, "properties": {"id": "p00035", "name": "주차장", "kind": "surface", "capacity": null, "fee": null, "access": "customers", "operator": null, "near_route": "m005-r2", "mountain_no": 5, "dist_to_trailhead_m": 767, "osm_id": "w1093809158"}}, {"type": "Feature", "geometry": {"type": "Point", "coordinates": [142.7895816, 43.6475786]}, "properties": {"id": "p00036", "name": "주차장", "kind": "surface", "capacity": null, "fee": null, "access": "customers", "operator": null, "near_route": "m005-r2", "mountain_no": 5, "dist_to_trailhead_m": 580, "osm_id": "w1093814452"}}, {"type": "Feature", "geometry": {"type": "Point", "coordinates": [142.7946389, 43.6465896]}, "properties": {"id": "p00037", "name": "주차장", "kind": "surface", "capacity": null, "fee": null, "access": null, "operator": null, "near_route": "m005-r2", "mountain_no": 5, "dist_to_trailhead_m": 315, "osm_id": "w1093862167"}}, {"type": "Feature", "geometry": {"type": "Point", "coordinates": [142.7946375, 43.6483974]}, "properties": {"id": "p00038", "name": "주차장", "kind": "surface", "capacity": null, "fee": null, "access": null, "operator": null, "near_route": "m005-r2", "mountain_no": 5, "dist_to_trailhead_m": 516, "osm_id": "w1162420931"}}, {"type": "Feature", "geometry": {"type": "Point", "coordinates": [142.7933202, 43.6473051]}, "properties": {"id": "p00039", "name": "주차장", "kind": "surface", "capacity": null, "fee": null, "access": null, "operator": null, "near_route": "m005-r2", "mountain_no": 5, "dist_to_trailhead_m": 405, "osm_id": "w1162420937"}}, {"type": "Feature", "geometry": {"type": "Point", "coordinates": [141.2123206, 45.2226144]}, "properties": {"id": "p00040", "name": "주차장", "kind": "surface", "capacity": null, "fee": null, "access": null, "operator": null, "near_route": "m001-r0", "mountain_no": 1, "dist_to_trailhead_m": 25, "osm_id": "w515743749"}}, {"type": "Feature", "geometry": {"type": "Point", "coordinates": [140.9409998, 40.6729661]}, "properties": {"id": "p00041", "name": "주차장", "kind": "surface", "capacity": null, "fee": null, "access": null, "operator": null, "near_route": "m011-r0", "mountain_no": 11, "dist_to_trailhead_m": 610, "osm_id": "w747309835"}}, {"type": "Feature", "geometry": {"type": "Point", "coordinates": [140.9389271, 40.6767025]}, "properties": {"id": "p00042", "name": "주차장", "kind": "surface", "capacity": null, "fee": null, "access": null, "operator": null, "near_route": "m011-r0", "mountain_no": 11, "dist_to_trailhead_m": 572, "osm_id": "w747309838"}}, {"type": "Feature", "geometry": {"type": "Point", "coordinates": [138.7303134, 35.3939675]}, "properties": {"id": "p00043", "name": "주차장", "kind": "surface", "capacity": null, "fee": null, "access": "yes", "operator": null, "near_route": "m072-r1", "mountain_no": 72, "dist_to_trailhead_m": 1104, "osm_id": "w988616588"}}, {"type": "Feature", "geometry": {"type": "Point", "coordinates": [138.2198907, 36.0984318]}, "properties": {"id": "p00044", "name": "주차장", "kind": "surface", "capacity": null, "fee": null, "access": null, "operator": null, "near_route": "m062-r1", "mountain_no": 62, "dist_to_trailhead_m": 1139, "osm_id": "w303309579"}}, {"type": "Feature", "geometry": {"type": "Point", "coordinates": [138.2132275, 36.1015653]}, "properties": {"id": "p00045", "name": "주차장", "kind": "surface", "capacity": null, "fee": null, "access": null, "operator": null, "near_route": "m062-r1", "mountain_no": 62, "dist_to_trailhead_m": 910, "osm_id": "w386615325"}}, {"type": "Feature", "geometry": {"type": "Point", "coordinates": [138.2293094, 36.103676]}, "properties": {"id": "p00046", "name": "주차장", "kind": "surface", "capacity": null, "fee": null, "access": "customers", "operator": null, "near_route": "m062-r1", "mountain_no": 62, "dist_to_trailhead_m": 1122, "osm_id": "w441864338"}}, {"type": "Feature", "geometry": {"type": "Point", "coordinates": [138.2297114, 36.1037707]}, "properties": {"id": "p00047", "name": "주차장", "kind": "surface", "capacity": null, "fee": null, "access": "customers", "operator": null, "near_route": "m062-r1", "mountain_no": 62, "dist_to_trailhead_m": 1149, "osm_id": "w441864340"}}, {"type": "Feature", "geometry": {"type": "Point", "coordinates": [138.2311782, 36.1061854]}, "properties": {"id": "p00048", "name": "주차장", "kind": "surface", "capacity": null, "fee": null, "access": null, "operator": null, "near_route": "m062-r1", "mountain_no": 62, "dist_to_trailhead_m": 1178, "osm_id": "w590834133"}}, {"type": "Feature", "geometry": {"type": "Point", "coordinates": [138.2124518, 36.1004146]}, "properties": {"id": "p00049", "name": "주차장", "kind": "surface", "capacity": null, "fee": null, "access": null, "operator": null, "near_route": "m062-r1", "mountain_no": 62, "dist_to_trailhead_m": 1056, "osm_id": "w664581563"}}, {"type": "Feature", "geometry": {"type": "Point", "coordinates": [138.2134129, 36.0994282]}, "properties": {"id": "p00050", "name": "P2", "kind": "surface", "capacity": null, "fee": null, "access": null, "operator": null, "near_route": "m062-r1", "mountain_no": 62, "dist_to_trailhead_m": 1114, "osm_id": "w664581564"}}, {"type": "Feature", "geometry": {"type": "Point", "coordinates": [138.641839, 35.908878]}, "properties": {"id": "p00051", "name": "金峰山荘宿泊者用駐車場", "kind": "surface", "capacity": null, "fee": null, "access": "customers", "operator": "金峰山荘", "near_route": "m068-r0", "mountain_no": 68, "dist_to_trailhead_m": 451, "osm_id": "w571903209"}}, {"type": "Feature", "geometry": {"type": "Point", "coordinates": [138.640462, 35.9090932]}, "properties": {"id": "p00052", "name": "주차장", "kind": "surface", "capacity": null, "fee": null, "access": "customers", "operator": "金峰山荘", "near_route": "m068-r0", "mountain_no": 68, "dist_to_trailhead_m": 426, "osm_id": "w571903211"}}, {"type": "Feature", "geometry": {"type": "Point", "coordinates": [140.2284515, 37.6183183]}, "properties": {"id": "p00053", "name": "주차장", "kind": "surface", "capacity": null, "fee": null, "access": null, "operator": null, "near_route": "m021-r2", "mountain_no": 21, "dist_to_trailhead_m": 221, "osm_id": "n12328273502"}}, {"type": "Feature", "geometry": {"type": "Point", "coordinates": [140.2272458, 37.6227448]}, "properties": {"id": "p00054", "name": "주차장", "kind": "surface", "capacity": null, "fee": null, "access": null, "operator": null, "near_route": "m021-r2", "mountain_no": 21, "dist_to_trailhead_m": 291, "osm_id": "w247364926"}}, {"type": "Feature", "geometry": {"type": "Point", "coordinates": [141.0408061, 39.8326177]}, "properties": {"id": "p00055", "name": "第一駐車場", "kind": "surface", "capacity": null, "fee": null, "access": null, "operator": null, "near_route": "m013-r0", "mountain_no": 13, "dist_to_trailhead_m": 245, "osm_id": "w52461135"}}, {"type": "Feature", "geometry": {"type": "Point", "coordinates": [139.1758501, 36.7766298]}, "properties": {"id": "p00056", "name": "주차장", "kind": "surface", "capacity": null, "fee": null, "access": null, "operator": null, "near_route": "m039-r3", "mountain_no": 39, "dist_to_trailhead_m": 225, "osm_id": "w503122388"}}, {"type": "Feature", "geometry": {"type": "Point", "coordinates": [139.1744499, 36.7769144]}, "properties": {"id": "p00057", "name": "주차장", "kind": "surface", "capacity": null, "fee": null, "access": null, "operator": null, "near_route": "m039-r3", "mountain_no": 39, "dist_to_trailhead_m": 96, "osm_id": "w503122389"}}, {"type": "Feature", "geometry": {"type": "Point", "coordinates": [139.1737184, 36.777161]}, "properties": {"id": "p00058", "name": "주차장", "kind": "surface", "capacity": null, "fee": null, "access": null, "operator": null, "near_route": "m039-r3", "mountain_no": 39, "dist_to_trailhead_m": 31, "osm_id": "w503122390"}}, {"type": "Feature", "geometry": {"type": "Point", "coordinates": [138.8421949, 36.0592864]}, "properties": {"id": "p00059", "name": "諏訪山登山口", "kind": "surface", "capacity": null, "fee": "no", "access": null, "operator": null, "near_route": "m065-r2", "mountain_no": 65, "dist_to_trailhead_m": 1125, "osm_id": "n8539009814"}}, {"type": "Feature", "geometry": {"type": "Point", "coordinates": [139.2045916, 35.4284599]}, "properties": {"id": "p00060", "name": "주차장", "kind": "surface", "capacity": null, "fee": "no", "access": null, "operator": null, "near_route": "m071-r0", "mountain_no": 71, "dist_to_trailhead_m": 340, "osm_id": "w678962128"}}, {"type": "Feature", "geometry": {"type": "Point", "coordinates": [131.2006026, 33.0947102]}, "properties": {"id": "p00061", "name": "주차장", "kind": "surface", "capacity": null, "fee": null, "access": null, "operator": null, "near_route": "m095-r0", "mountain_no": 95, "dist_to_trailhead_m": 739, "osm_id": "n1712258419"}}, {"type": "Feature", "geometry": {"type": "Point", "coordinates": [131.207642, 33.0956768]}, "properties": {"id": "p00062", "name": "주차장", "kind": "surface", "capacity": null, "fee": null, "access": null, "operator": null, "near_route": "m095-r0", "mountain_no": 95, "dist_to_trailhead_m": 101, "osm_id": "w181689270"}}, {"type": "Feature", "geometry": {"type": "Point", "coordinates": [138.0913565, 35.3848597]}, "properties": {"id": "p00063", "name": "주차장", "kind": "surface", "capacity": null, "fee": null, "access": null, "operator": null, "near_route": "m085-r0", "mountain_no": 85, "dist_to_trailhead_m": 427, "osm_id": "w878103061"}}, {"type": "Feature", "geometry": {"type": "Point", "coordinates": [145.144412, 44.0341016]}, "properties": {"id": "p00064", "name": "주차장", "kind": "surface", "capacity": null, "fee": null, "access": null, "operator": null, "near_route": "m002-r1", "mountain_no": 2, "dist_to_trailhead_m": 939, "osm_id": "n11054265805"}}, {"type": "Feature", "geometry": {"type": "Point", "coordinates": [145.1661871, 44.0300119]}, "properties": {"id": "p00065", "name": "주차장", "kind": "surface", "capacity": null, "fee": null, "access": null, "operator": null, "near_route": "m002-r1", "mountain_no": 2, "dist_to_trailhead_m": 1226, "osm_id": "w647930719"}}, {"type": "Feature", "geometry": {"type": "Point", "coordinates": [145.1565892, 44.0327657]}, "properties": {"id": "p00066", "name": "주차장", "kind": "surface", "capacity": null, "fee": null, "access": "customers", "operator": null, "near_route": "m002-r1", "mountain_no": 2, "dist_to_trailhead_m": 553, "osm_id": "w1209638915"}}, {"type": "Feature", "geometry": {"type": "Point", "coordinates": [145.1620216, 44.032077]}, "properties": {"id": "p00067", "name": "주차장", "kind": "surface", "capacity": null, "fee": null, "access": null, "operator": null, "near_route": "m002-r1", "mountain_no": 2, "dist_to_trailhead_m": 829, "osm_id": "w1396847092"}}, {"type": "Feature", "geometry": {"type": "Point", "coordinates": [145.161488, 44.031943]}, "properties": {"id": "p00068", "name": "주차장", "kind": "surface", "capacity": null, "fee": null, "access": null, "operator": null, "near_route": "m002-r1", "mountain_no": 2, "dist_to_trailhead_m": 813, "osm_id": "w1396847094"}}, {"type": "Feature", "geometry": {"type": "Point", "coordinates": [137.4475117, 35.9233059]}, "properties": {"id": "p00069", "name": "濁河温泉;市営露天風呂（Ｐ無）", "kind": "surface", "capacity": null, "fee": null, "access": null, "operator": null, "near_route": "m060-r0", "mountain_no": 60, "dist_to_trailhead_m": 1199, "osm_id": "n6717809150"}}, {"type": "Feature", "geometry": {"type": "Point", "coordinates": [138.8321109, 35.7320117]}, "properties": {"id": "p00070", "name": "주차장", "kind": "surface", "capacity": null, "fee": null, "access": null, "operator": null, "near_route": "m070-r0", "mountain_no": 70, "dist_to_trailhead_m": 35, "osm_id": "n705087946"}}, {"type": "Feature", "geometry": {"type": "Point", "coordinates": [138.8325402, 35.7313863]}, "properties": {"id": "p00071", "name": "주차장", "kind": "surface", "capacity": null, "fee": null, "access": null, "operator": null, "near_route": "m070-r0", "mountain_no": 70, "dist_to_trailhead_m": 45, "osm_id": "n705087947"}}, {"type": "Feature", "geometry": {"type": "Point", "coordinates": [138.8314003, 35.7299966]}, "properties": {"id": "p00072", "name": "주차장", "kind": "surface", "capacity": null, "fee": null, "access": null, "operator": null, "near_route": "m070-r0", "mountain_no": 70, "dist_to_trailhead_m": 209, "osm_id": "n3710217293"}}, {"type": "Feature", "geometry": {"type": "Point", "coordinates": [138.8804121, 36.0271594]}, "properties": {"id": "p00073", "name": "주차장", "kind": "surface", "capacity": null, "fee": null, "access": null, "operator": null, "near_route": "m065-r3", "mountain_no": 65, "dist_to_trailhead_m": 315, "osm_id": "n8539065918"}}, {"type": "Feature", "geometry": {"type": "Point", "coordinates": [138.8814496, 36.0269602]}, "properties": {"id": "p00074", "name": "주차장", "kind": "surface", "capacity": null, "fee": null, "access": null, "operator": null, "near_route": "m065-r3", "mountain_no": 65, "dist_to_trailhead_m": 342, "osm_id": "n8539065919"}}, {"type": "Feature", "geometry": {"type": "Point", "coordinates": [138.8779797, 36.0284318]}, "properties": {"id": "p00075", "name": "주차장", "kind": "surface", "capacity": null, "fee": null, "access": null, "operator": null, "near_route": "m065-r3", "mountain_no": 65, "dist_to_trailhead_m": 300, "osm_id": "n8539065921"}}, {"type": "Feature", "geometry": {"type": "Point", "coordinates": [138.8781756, 36.0279688]}, "properties": {"id": "p00076", "name": "주차장", "kind": "surface", "capacity": null, "fee": null, "access": null, "operator": null, "near_route": "m065-r3", "mountain_no": 65, "dist_to_trailhead_m": 319, "osm_id": "n8539065922"}}, {"type": "Feature", "geometry": {"type": "Point", "coordinates": [138.8783616, 36.0284232]}, "properties": {"id": "p00077", "name": "주차장", "kind": "surface", "capacity": null, "fee": null, "access": null, "operator": null, "near_route": "m065-r3", "mountain_no": 65, "dist_to_trailhead_m": 273, "osm_id": "n8539065923"}}, {"type": "Feature", "geometry": {"type": "Point", "coordinates": [144.6986766, 43.7989959]}, "properties": {"id": "p00078", "name": "주차장", "kind": "surface", "capacity": null, "fee": null, "access": null, "operator": null, "near_route": "m003-r1", "mountain_no": 3, "dist_to_trailhead_m": 1187, "osm_id": "w965195234"}}, {"type": "Feature", "geometry": {"type": "Point", "coordinates": [139.1294845, 37.1521927]}, "properties": {"id": "p00079", "name": "주차장", "kind": "surface", "capacity": null, "fee": null, "access": null, "operator": null, "near_route": "m025-r1", "mountain_no": 25, "dist_to_trailhead_m": 225, "osm_id": "w27422347"}}, {"type": "Feature", "geometry": {"type": "Point", "coordinates": [138.3460554, 35.6353293]}, "properties": {"id": "p00080", "name": "夜叉神峠駐車場", "kind": "surface", "capacity": null, "fee": null, "access": null, "operator": null, "near_route": "m079-r0", "mountain_no": 79, "dist_to_trailhead_m": 62, "osm_id": "w242681306"}}, {"type": "Feature", "geometry": {"type": "Point", "coordinates": [138.4028538, 36.5747579]}, "properties": {"id": "p00081", "name": "米子大瀑布駐車場", "kind": "surface", "capacity": null, "fee": null, "access": null, "operator": null, "near_route": "m042-r2", "mountain_no": 42, "dist_to_trailhead_m": 641, "osm_id": "w232347041"}}, {"type": "Feature", "geometry": {"type": "Point", "coordinates": [140.2459111, 37.6291003]}, "properties": {"id": "p00082", "name": "주차장", "kind": "surface", "capacity": null, "fee": null, "access": null, "operator": null, "near_route": "m021-r0", "mountain_no": 21, "dist_to_trailhead_m": 9, "osm_id": "n12328273401"}}, {"type": "Feature", "geometry": {"type": "Point", "coordinates": [136.6460553, 35.92237]}, "properties": {"id": "p00083", "name": "九頭竜温泉;平成の湯", "kind": "surface", "capacity": null, "fee": null, "access": null, "operator": null, "near_route": "m088-r0", "mountain_no": 88, "dist_to_trailhead_m": 1154, "osm_id": "n6720513599"}}, {"type": "Feature", "geometry": {"type": "Point", "coordinates": [136.6461659, 35.9224142]}, "properties": {"id": "p00084", "name": "주차장", "kind": "surface", "capacity": null, "fee": null, "access": null, "operator": null, "near_route": "m088-r0", "mountain_no": 88, "dist_to_trailhead_m": 1165, "osm_id": "w715006717"}}, {"type": "Feature", "geometry": {"type": "Point", "coordinates": [138.4658794, 36.5557198]}, "properties": {"id": "p00085", "name": "주차장", "kind": "surface", "capacity": null, "fee": null, "access": null, "operator": null, "near_route": "m042-r1", "mountain_no": 42, "dist_to_trailhead_m": 967, "osm_id": "w502983724"}}, {"type": "Feature", "geometry": {"type": "Point", "coordinates": [140.8015467, 39.980343]}, "properties": {"id": "p00086", "name": "八幡平温泉;ゆらら", "kind": "surface", "capacity": null, "fee": null, "access": null, "operator": null, "near_route": "m012-r3", "mountain_no": 12, "dist_to_trailhead_m": 631, "osm_id": "n6454301149"}}, {"type": "Feature", "geometry": {"type": "Point", "coordinates": [140.8175021, 39.9782864]}, "properties": {"id": "p00087", "name": "주차장", "kind": "surface", "capacity": null, "fee": null, "access": null, "operator": null, "near_route": "m012-r3", "mountain_no": 12, "dist_to_trailhead_m": 1077, "osm_id": "w438254313"}}, {"type": "Feature", "geometry": {"type": "Point", "coordinates": [140.8016552, 39.9824568]}, "properties": {"id": "p00088", "name": "주차장", "kind": "surface", "capacity": null, "fee": null, "access": null, "operator": null, "near_route": "m012-r3", "mountain_no": 12, "dist_to_trailhead_m": 506, "osm_id": "w438256769"}}, {"type": "Feature", "geometry": {"type": "Point", "coordinates": [140.801657, 39.9803805]}, "properties": {"id": "p00089", "name": "주차장", "kind": "surface", "capacity": null, "fee": null, "access": null, "operator": null, "near_route": "m012-r3", "mountain_no": 12, "dist_to_trailhead_m": 621, "osm_id": "w688336022"}}, {"type": "Feature", "geometry": {"type": "Point", "coordinates": [139.1072789, 36.7670552]}, "properties": {"id": "p00090", "name": "주차장", "kind": "surface", "capacity": null, "fee": null, "access": null, "operator": null, "near_route": "m039-r1", "mountain_no": 39, "dist_to_trailhead_m": 728, "osm_id": "w914022002"}}, {"type": "Feature", "geometry": {"type": "Point", "coordinates": [139.1061305, 36.7645914]}, "properties": {"id": "p00091", "name": "주차장", "kind": "surface", "capacity": null, "fee": null, "access": null, "operator": null, "near_route": "m039-r1", "mountain_no": 39, "dist_to_trailhead_m": 441, "osm_id": "w914022003"}}, {"type": "Feature", "geometry": {"type": "Point", "coordinates": [139.1078635, 36.7682777]}, "properties": {"id": "p00092", "name": "주차장", "kind": "surface", "capacity": null, "fee": null, "access": null, "operator": null, "near_route": "m039-r1", "mountain_no": 39, "dist_to_trailhead_m": 873, "osm_id": "w914022008"}}, {"type": "Feature", "geometry": {"type": "Point", "coordinates": [144.7962877, 43.7629984]}, "properties": {"id": "p00093", "name": "주차장", "kind": "surface", "capacity": null, "fee": "no", "access": "yes", "operator": null, "near_route": "m003-r3", "mountain_no": 3, "dist_to_trailhead_m": 729, "osm_id": "w806208204"}}, {"type": "Feature", "geometry": {"type": "Point", "coordinates": [139.1716525, 36.8401301]}, "properties": {"id": "p00094", "name": "주차장", "kind": "surface", "capacity": null, "fee": null, "access": null, "operator": null, "near_route": "m039-r0", "mountain_no": 39, "dist_to_trailhead_m": 1088, "osm_id": "w1110493075"}}, {"type": "Feature", "geometry": {"type": "Point", "coordinates": [142.6377189, 43.4307474]}, "properties": {"id": "p00095", "name": "주차장", "kind": "surface", "capacity": null, "fee": null, "access": null, "operator": null, "near_route": "m007-r1", "mountain_no": 7, "dist_to_trailhead_m": 783, "osm_id": "n1774886019"}}, {"type": "Feature", "geometry": {"type": "Point", "coordinates": [142.637504, 43.4306548]}, "properties": {"id": "p00096", "name": "주차장", "kind": "surface", "capacity": null, "fee": null, "access": null, "operator": null, "near_route": "m007-r1", "mountain_no": 7, "dist_to_trailhead_m": 771, "osm_id": "n8720866944"}}, {"type": "Feature", "geometry": {"type": "Point", "coordinates": [142.6415821, 43.4317093]}, "properties": {"id": "p00097", "name": "주차장", "kind": "surface", "capacity": null, "fee": null, "access": null, "operator": null, "near_route": "m007-r1", "mountain_no": 7, "dist_to_trailhead_m": 966, "osm_id": "w576996448"}}, {"type": "Feature", "geometry": {"type": "Point", "coordinates": [142.6434253, 43.4139647]}, "properties": {"id": "p00098", "name": "주차장", "kind": "surface", "capacity": null, "fee": "no", "access": "yes", "operator": null, "near_route": "m007-r1", "mountain_no": 7, "dist_to_trailhead_m": 1211, "osm_id": "w889237286"}}, {"type": "Feature", "geometry": {"type": "Point", "coordinates": [142.6385583, 43.4151143]}, "properties": {"id": "p00099", "name": "주차장", "kind": "surface", "capacity": null, "fee": null, "access": null, "operator": null, "near_route": "m007-r1", "mountain_no": 7, "dist_to_trailhead_m": 969, "osm_id": "w889237288"}}, {"type": "Feature", "geometry": {"type": "Point", "coordinates": [139.9853983, 38.5420933]}, "properties": {"id": "p00100", "name": "주차장", "kind": "surface", "capacity": null, "fee": null, "access": "yes", "operator": null, "near_route": "m016-r0", "mountain_no": 16, "dist_to_trailhead_m": 388, "osm_id": "w462146101"}}, {"type": "Feature", "geometry": {"type": "Point", "coordinates": [145.0892852, 44.1102925]}, "properties": {"id": "p00101", "name": "주차장", "kind": "surface", "capacity": null, "fee": "no", "access": "customers", "operator": null, "near_route": "m002-r2", "mountain_no": 2, "dist_to_trailhead_m": 115, "osm_id": "w502638048"}}, {"type": "Feature", "geometry": {"type": "Point", "coordinates": [137.7844553, 36.3280407]}, "properties": {"id": "p00102", "name": "주차장", "kind": "surface", "capacity": null, "fee": null, "access": null, "operator": null, "near_route": "m056-r2", "mountain_no": 56, "dist_to_trailhead_m": 1197, "osm_id": "n13161512599"}}, {"type": "Feature", "geometry": {"type": "Point", "coordinates": [130.5338759, 31.1964744]}, "properties": {"id": "p00103", "name": "開聞山麓ふれあい公園駐車場", "kind": "surface", "capacity": null, "fee": "no", "access": null, "operator": null, "near_route": "m099-r0", "mountain_no": 99, "dist_to_trailhead_m": 431, "osm_id": "w244544627"}}, {"type": "Feature", "geometry": {"type": "Point", "coordinates": [140.3264437, 37.6228563]}, "properties": {"id": "p00104", "name": "주차장", "kind": "surface", "capacity": null, "fee": null, "access": null, "operator": null, "near_route": "m021-r1", "mountain_no": 21, "dist_to_trailhead_m": 701, "osm_id": "w319806787"}}, {"type": "Feature", "geometry": {"type": "Point", "coordinates": [140.3253697, 37.6232252]}, "properties": {"id": "p00105", "name": "주차장", "kind": "surface", "capacity": null, "fee": null, "access": null, "operator": null, "near_route": "m021-r1", "mountain_no": 21, "dist_to_trailhead_m": 598, "osm_id": "w1230778634"}}, {"type": "Feature", "geometry": {"type": "Point", "coordinates": [138.0783272, 35.3785719]}, "properties": {"id": "p00106", "name": "주차장", "kind": "surface", "capacity": null, "fee": null, "access": null, "operator": null, "near_route": "m086-r2", "mountain_no": 86, "dist_to_trailhead_m": 652, "osm_id": "w917662466"}}, {"type": "Feature", "geometry": {"type": "Point", "coordinates": [137.5542476, 36.124855]}, "properties": {"id": "p00107", "name": "Tatamidaira", "kind": "surface", "capacity": null, "fee": null, "access": null, "operator": null, "near_route": "m059-r0", "mountain_no": 59, "dist_to_trailhead_m": 78, "osm_id": "w424537302"}}, {"type": "Feature", "geometry": {"type": "Point", "coordinates": [137.5568242, 36.1330641]}, "properties": {"id": "p00108", "name": "주차장", "kind": "surface", "capacity": null, "fee": null, "access": null, "operator": null, "near_route": "m059-r0", "mountain_no": 59, "dist_to_trailhead_m": 933, "osm_id": "w424542771"}}, {"type": "Feature", "geometry": {"type": "Point", "coordinates": [139.0240334, 34.8727728]}, "properties": {"id": "p00109", "name": "주차장", "kind": "surface", "capacity": null, "fee": null, "access": null, "operator": null, "near_route": "m073-r3", "mountain_no": 73, "dist_to_trailhead_m": 54, "osm_id": "w333275926"}}, {"type": "Feature", "geometry": {"type": "Point", "coordinates": [139.0233525, 34.8729532]}, "properties": {"id": "p00110", "name": "ハイカー用駐車場", "kind": "surface", "capacity": null, "fee": "no", "access": "yes", "operator": null, "near_route": "m073-r3", "mountain_no": 73, "dist_to_trailhead_m": 67, "osm_id": "w333275929"}}, {"type": "Feature", "geometry": {"type": "Point", "coordinates": [133.5287691, 35.3945476]}, "properties": {"id": "p00111", "name": "주차장", "kind": "surface", "capacity": null, "fee": null, "access": "yes", "operator": null, "near_route": "m092-r0", "mountain_no": 92, "dist_to_trailhead_m": 1084, "osm_id": "n725874247"}}, {"type": "Feature", "geometry": {"type": "Point", "coordinates": [133.5310369, 35.3909383]}, "properties": {"id": "p00112", "name": "주차장", "kind": "surface", "capacity": null, "fee": null, "access": "yes", "operator": null, "near_route": "m092-r0", "mountain_no": 92, "dist_to_trailhead_m": 710, "osm_id": "w251445871"}}, {"type": "Feature", "geometry": {"type": "Point", "coordinates": [133.5306224, 35.3952284]}, "properties": {"id": "p00113", "name": "주차장", "kind": "multi-storey", "capacity": null, "fee": "yes", "access": "yes", "operator": null, "near_route": "m092-r0", "mountain_no": 92, "dist_to_trailhead_m": 1007, "osm_id": "w450027436"}}, {"type": "Feature", "geometry": {"type": "Point", "coordinates": [133.5276619, 35.3900739]}, "properties": {"id": "p00114", "name": "주차장", "kind": "surface", "capacity": null, "fee": "no", "access": "yes", "operator": null, "near_route": "m092-r0", "mountain_no": 92, "dist_to_trailhead_m": 985, "osm_id": "w536218846"}}, {"type": "Feature", "geometry": {"type": "Point", "coordinates": [133.5292138, 35.3942577]}, "properties": {"id": "p00115", "name": "주차장", "kind": "surface", "capacity": null, "fee": null, "access": "yes", "operator": "大山町", "near_route": "m092-r0", "mountain_no": 92, "dist_to_trailhead_m": 1033, "osm_id": "w1281893372"}}, {"type": "Feature", "geometry": {"type": "Point", "coordinates": [140.2817326, 40.6945768]}, "properties": {"id": "p00116", "name": "주차장", "kind": "surface", "capacity": null, "fee": null, "access": null, "operator": null, "near_route": "m010-r2", "mountain_no": 10, "dist_to_trailhead_m": 1267, "osm_id": "w1306296011"}}, {"type": "Feature", "geometry": {"type": "Point", "coordinates": [137.6323637, 35.4723497]}, "properties": {"id": "p00117", "name": "주차장", "kind": "surface", "capacity": null, "fee": null, "access": null, "operator": null, "near_route": "m076-r0", "mountain_no": 76, "dist_to_trailhead_m": 56, "osm_id": "w1043333026"}}, {"type": "Feature", "geometry": {"type": "Point", "coordinates": [137.6233678, 35.4713394]}, "properties": {"id": "p00118", "name": "주차장", "kind": "surface", "capacity": null, "fee": null, "access": null, "operator": "恵那山・追分登山口駐車場", "near_route": "m076-r0", "mountain_no": 76, "dist_to_trailhead_m": 796, "osm_id": "w1123233196"}}, {"type": "Feature", "geometry": {"type": "Point", "coordinates": [137.6216524, 35.4717021]}, "properties": {"id": "p00119", "name": "大杉駐車場", "kind": "surface", "capacity": null, "fee": null, "access": "yes", "operator": null, "near_route": "m076-r0", "mountain_no": 76, "dist_to_trailhead_m": 949, "osm_id": "w1123234657"}}, {"type": "Feature", "geometry": {"type": "Point", "coordinates": [137.6335711, 35.4763976]}, "properties": {"id": "p00120", "name": "萬岳荘駐車場", "kind": "surface", "capacity": null, "fee": null, "access": null, "operator": null, "near_route": "m076-r0", "mountain_no": 76, "dist_to_trailhead_m": 518, "osm_id": "w1301889400"}}, {"type": "Feature", "geometry": {"type": "Point", "coordinates": [137.6288932, 35.4717389]}, "properties": {"id": "p00121", "name": "주차장", "kind": "surface", "capacity": null, "fee": null, "access": null, "operator": null, "near_route": "m076-r0", "mountain_no": 76, "dist_to_trailhead_m": 294, "osm_id": "w1301889405"}}, {"type": "Feature", "geometry": {"type": "Point", "coordinates": [137.6315364, 35.4717087]}, "properties": {"id": "p00122", "name": "주차장", "kind": "surface", "capacity": null, "fee": null, "access": null, "operator": null, "near_route": "m076-r0", "mountain_no": 76, "dist_to_trailhead_m": 58, "osm_id": "w1301889406"}}, {"type": "Feature", "geometry": {"type": "Point", "coordinates": [138.7767624, 35.3650134]}, "properties": {"id": "p00123", "name": "주차장", "kind": "surface", "capacity": null, "fee": null, "access": null, "operator": null, "near_route": "m072-r2", "mountain_no": 72, "dist_to_trailhead_m": 197, "osm_id": "w631535020"}}, {"type": "Feature", "geometry": {"type": "Point", "coordinates": [139.1929646, 36.5410497]}, "properties": {"id": "p00124", "name": "주차장", "kind": "surface", "capacity": null, "fee": "no", "access": "yes", "operator": null, "near_route": "m040-r0", "mountain_no": 40, "dist_to_trailhead_m": 809, "osm_id": "w245389995"}}, {"type": "Feature", "geometry": {"type": "Point", "coordinates": [139.187843, 36.5436197]}, "properties": {"id": "p00125", "name": "주차장", "kind": "surface", "capacity": null, "fee": null, "access": null, "operator": null, "near_route": "m040-r0", "mountain_no": 40, "dist_to_trailhead_m": 677, "osm_id": "w292599079"}}, {"type": "Feature", "geometry": {"type": "Point", "coordinates": [139.1823916, 36.5466599]}, "properties": {"id": "p00126", "name": "大洞駐車場", "kind": "surface", "capacity": null, "fee": "no", "access": null, "operator": null, "near_route": "m040-r0", "mountain_no": 40, "dist_to_trailhead_m": 936, "osm_id": "w530835950"}}, {"type": "Feature", "geometry": {"type": "Point", "coordinates": [139.1862699, 36.5479951]}, "properties": {"id": "p00127", "name": "おのこ駐車場", "kind": "surface", "capacity": null, "fee": "no", "access": null, "operator": null, "near_route": "m040-r0", "mountain_no": 40, "dist_to_trailhead_m": 572, "osm_id": "w530835954"}}, {"type": "Feature", "geometry": {"type": "Point", "coordinates": [139.1855278, 36.5518056]}, "properties": {"id": "p00128", "name": "주차장", "kind": "surface", "capacity": null, "fee": null, "access": null, "operator": null, "near_route": "m040-r0", "mountain_no": 40, "dist_to_trailhead_m": 745, "osm_id": "w621792347"}}, {"type": "Feature", "geometry": {"type": "Point", "coordinates": [139.1840758, 36.5531827]}, "properties": {"id": "p00129", "name": "주차장", "kind": "surface", "capacity": null, "fee": null, "access": null, "operator": null, "near_route": "m040-r0", "mountain_no": 40, "dist_to_trailhead_m": 938, "osm_id": "w621792348"}}, {"type": "Feature", "geometry": {"type": "Point", "coordinates": [139.1838262, 36.5542545]}, "properties": {"id": "p00130", "name": "黒檜山登山口駐車場", "kind": "surface", "capacity": null, "fee": "no", "access": null, "operator": null, "near_route": "m040-r0", "mountain_no": 40, "dist_to_trailhead_m": 1028, "osm_id": "w621792351"}}, {"type": "Feature", "geometry": {"type": "Point", "coordinates": [139.1873455, 36.5467195]}, "properties": {"id": "p00131", "name": "駒ヶ岳登山口駐車場", "kind": "surface", "capacity": null, "fee": "no", "access": null, "operator": null, "near_route": "m040-r0", "mountain_no": 40, "dist_to_trailhead_m": 507, "osm_id": "w621796016"}}, {"type": "Feature", "geometry": {"type": "Point", "coordinates": [139.1849009, 36.5473781]}, "properties": {"id": "p00132", "name": "주차장", "kind": "surface", "capacity": null, "fee": null, "access": null, "operator": null, "near_route": "m040-r0", "mountain_no": 40, "dist_to_trailhead_m": 701, "osm_id": "w627593121"}}, {"type": "Feature", "geometry": {"type": "Point", "coordinates": [139.1865897, 36.548383]}, "properties": {"id": "p00133", "name": "주차장", "kind": "surface", "capacity": null, "fee": null, "access": null, "operator": null, "near_route": "m040-r0", "mountain_no": 40, "dist_to_trailhead_m": 542, "osm_id": "w627593123"}}, {"type": "Feature", "geometry": {"type": "Point", "coordinates": [139.2528315, 37.0372551]}, "properties": {"id": "p00134", "name": "平ヶ岳 登山口駐車場", "kind": "surface", "capacity": null, "fee": "no", "access": "yes", "operator": null, "near_route": "m026-r2", "mountain_no": 26, "dist_to_trailhead_m": 1159, "osm_id": "w1311703720"}}, {"type": "Feature", "geometry": {"type": "Point", "coordinates": [138.0788816, 36.867769]}, "properties": {"id": "p00135", "name": "주차장", "kind": "surface", "capacity": null, "fee": null, "access": null, "operator": null, "near_route": "m033-r1", "mountain_no": 33, "dist_to_trailhead_m": 1195, "osm_id": "w536265765"}}, {"type": "Feature", "geometry": {"type": "Point", "coordinates": [138.0786737, 36.8687159]}, "properties": {"id": "p00136", "name": "주차장", "kind": "surface", "capacity": null, "fee": null, "access": null, "operator": null, "near_route": "m033-r1", "mountain_no": 33, "dist_to_trailhead_m": 1091, "osm_id": "w536265770"}}, {"type": "Feature", "geometry": {"type": "Point", "coordinates": [139.423164, 36.8060803]}, "properties": {"id": "p00137", "name": "주차장", "kind": "surface", "capacity": null, "fee": "no", "access": "yes", "operator": null, "near_route": "m037-r2", "mountain_no": 37, "dist_to_trailhead_m": 682, "osm_id": "w388556107"}}, {"type": "Feature", "geometry": {"type": "Point", "coordinates": [139.4224151, 36.8064469]}, "properties": {"id": "p00138", "name": "주차장", "kind": "surface", "capacity": null, "fee": "no", "access": "yes", "operator": null, "near_route": "m037-r2", "mountain_no": 37, "dist_to_trailhead_m": 608, "osm_id": "w388556108"}}, {"type": "Feature", "geometry": {"type": "Point", "coordinates": [139.4243961, 36.8054473]}, "properties": {"id": "p00139", "name": "주차장", "kind": "surface", "capacity": null, "fee": null, "access": "customers", "operator": null, "near_route": "m037-r2", "mountain_no": 37, "dist_to_trailhead_m": 807, "osm_id": "w1422333065"}}, {"type": "Feature", "geometry": {"type": "Point", "coordinates": [139.4233766, 36.8052241]}, "properties": {"id": "p00140", "name": "주차장", "kind": "surface", "capacity": null, "fee": "no", "access": "yes", "operator": null, "near_route": "m037-r2", "mountain_no": 37, "dist_to_trailhead_m": 730, "osm_id": "w1422401693"}}, {"type": "Feature", "geometry": {"type": "Point", "coordinates": [139.4237675, 36.8047699]}, "properties": {"id": "p00141", "name": "주차장", "kind": "surface", "capacity": null, "fee": "no", "access": "yes", "operator": null, "near_route": "m037-r2", "mountain_no": 37, "dist_to_trailhead_m": 781, "osm_id": "w1422401694"}}, {"type": "Feature", "geometry": {"type": "Point", "coordinates": [139.4238237, 36.80549]}, "properties": {"id": "p00142", "name": "주차장", "kind": "surface", "capacity": null, "fee": "no", "access": "yes", "operator": null, "near_route": "m037-r2", "mountain_no": 37, "dist_to_trailhead_m": 757, "osm_id": "w1422401701"}}, {"type": "Feature", "geometry": {"type": "Point", "coordinates": [139.4235903, 36.8062196]}, "properties": {"id": "p00143", "name": "주차장", "kind": "surface", "capacity": null, "fee": "no", "access": "yes", "operator": null, "near_route": "m037-r2", "mountain_no": 37, "dist_to_trailhead_m": 716, "osm_id": "w1422426656"}}, {"type": "Feature", "geometry": {"type": "Point", "coordinates": [139.423163, 36.8066993]}, "properties": {"id": "p00144", "name": "주차장", "kind": "surface", "capacity": null, "fee": "no", "access": "permit", "operator": null, "near_route": "m037-r2", "mountain_no": 37, "dist_to_trailhead_m": 668, "osm_id": "w1422426659"}}, {"type": "Feature", "geometry": {"type": "Point", "coordinates": [139.4218272, 36.8061954]}, "properties": {"id": "p00145", "name": "주차장", "kind": "surface", "capacity": null, "fee": "no", "access": "yes", "operator": null, "near_route": "m037-r2", "mountain_no": 37, "dist_to_trailhead_m": 564, "osm_id": "w1422426663"}}, {"type": "Feature", "geometry": {"type": "Point", "coordinates": [139.4217717, 36.8052274]}, "properties": {"id": "p00146", "name": "주차장", "kind": "surface", "capacity": null, "fee": "no", "access": "customers", "operator": null, "near_route": "m037-r2", "mountain_no": 37, "dist_to_trailhead_m": 599, "osm_id": "w1422426665"}}, {"type": "Feature", "geometry": {"type": "Point", "coordinates": [139.4249797, 36.8066763]}, "properties": {"id": "p00147", "name": "紫雲荘 駐車場", "kind": "surface", "capacity": null, "fee": "no", "access": "customers", "operator": null, "near_route": "m037-r2", "mountain_no": 37, "dist_to_trailhead_m": 829, "osm_id": "w1422608872"}}, {"type": "Feature", "geometry": {"type": "Point", "coordinates": [139.4243234, 36.8064668]}, "properties": {"id": "p00148", "name": "山月 駐車場", "kind": "surface", "capacity": null, "fee": "no", "access": "customers", "operator": null, "near_route": "m037-r2", "mountain_no": 37, "dist_to_trailhead_m": 774, "osm_id": "w1422608873"}}, {"type": "Feature", "geometry": {"type": "Point", "coordinates": [139.4246723, 36.8064819]}, "properties": {"id": "p00149", "name": "ゆるり奥日光 駐車場", "kind": "surface", "capacity": null, "fee": "no", "access": "customers", "operator": null, "near_route": "m037-r2", "mountain_no": 37, "dist_to_trailhead_m": 805, "osm_id": "w1422608878"}}, {"type": "Feature", "geometry": {"type": "Point", "coordinates": [139.4253145, 36.8068653]}, "properties": {"id": "p00150", "name": "やまみず樹 駐車場", "kind": "surface", "capacity": null, "fee": "no", "access": "customers", "operator": null, "near_route": "m037-r2", "mountain_no": 37, "dist_to_trailhead_m": 856, "osm_id": "w1422608880"}}, {"type": "Feature", "geometry": {"type": "Point", "coordinates": [139.4254751, 36.8062212]}, "properties": {"id": "p00151", "name": "板屋 駐車場", "kind": "surface", "capacity": null, "fee": "no", "access": "customers", "operator": null, "near_route": "m037-r2", "mountain_no": 37, "dist_to_trailhead_m": 880, "osm_id": "w1422608882"}}, {"type": "Feature", "geometry": {"type": "Point", "coordinates": [140.085263, 37.5656479]}, "properties": {"id": "p00152", "name": "주차장", "kind": "surface", "capacity": null, "fee": null, "access": null, "operator": null, "near_route": "m022-r1", "mountain_no": 22, "dist_to_trailhead_m": 367, "osm_id": "w252836947"}}, {"type": "Feature", "geometry": {"type": "Point", "coordinates": [140.0932512, 37.5741529]}, "properties": {"id": "p00153", "name": "さんすい駐車場", "kind": "surface", "capacity": null, "fee": null, "access": null, "operator": null, "near_route": "m022-r1", "mountain_no": 22, "dist_to_trailhead_m": 1186, "osm_id": "w253930730"}}, {"type": "Feature", "geometry": {"type": "Point", "coordinates": [140.0903521, 37.5725098]}, "properties": {"id": "p00154", "name": "はやま西駐車場", "kind": "surface", "capacity": null, "fee": null, "access": null, "operator": null, "near_route": "m022-r1", "mountain_no": 22, "dist_to_trailhead_m": 872, "osm_id": "w253930733"}}, {"type": "Feature", "geometry": {"type": "Point", "coordinates": [140.0745575, 37.5609184]}, "properties": {"id": "p00155", "name": "주차장", "kind": "surface", "capacity": null, "fee": null, "access": null, "operator": null, "near_route": "m022-r1", "mountain_no": 22, "dist_to_trailhead_m": 1038, "osm_id": "w255497579"}}, {"type": "Feature", "geometry": {"type": "Point", "coordinates": [138.191145, 36.0926749]}, "properties": {"id": "p00156", "name": "伊那丸富士見台", "kind": "surface", "capacity": null, "fee": null, "access": null, "operator": null, "near_route": "m062-r3", "mountain_no": 62, "dist_to_trailhead_m": 1005, "osm_id": "w439241614"}}, {"type": "Feature", "geometry": {"type": "Point", "coordinates": [138.1950956, 36.094558]}, "properties": {"id": "p00157", "name": "주차장", "kind": "surface", "capacity": null, "fee": null, "access": null, "operator": null, "near_route": "m062-r3", "mountain_no": 62, "dist_to_trailhead_m": 1155, "osm_id": "w1220684502"}}, {"type": "Feature", "geometry": {"type": "Point", "coordinates": [137.5543375, 36.6471981]}, "properties": {"id": "p00158", "name": "주차장", "kind": "surface", "capacity": null, "fee": "no", "access": "yes", "operator": null, "near_route": "m048-r0", "mountain_no": 48, "dist_to_trailhead_m": 644, "osm_id": "w416728786"}}, {"type": "Feature", "geometry": {"type": "Point", "coordinates": [137.5514764, 36.6494736]}, "properties": {"id": "p00159", "name": "주차장", "kind": "surface", "capacity": null, "fee": null, "access": null, "operator": null, "near_route": "m048-r0", "mountain_no": 48, "dist_to_trailhead_m": 952, "osm_id": "w416728807"}}, {"type": "Feature", "geometry": {"type": "Point", "coordinates": [140.3432885, 40.6195171]}, "properties": {"id": "p00160", "name": "주차장", "kind": "surface", "capacity": null, "fee": "no", "access": "yes", "operator": null, "near_route": "m010-r3", "mountain_no": 10, "dist_to_trailhead_m": 1112, "osm_id": "w825423907"}}, {"type": "Feature", "geometry": {"type": "Point", "coordinates": [140.3558563, 40.6232346]}, "properties": {"id": "p00161", "name": "주차장", "kind": "surface", "capacity": null, "fee": null, "access": null, "operator": null, "near_route": "m010-r3", "mountain_no": 10, "dist_to_trailhead_m": 269, "osm_id": "w927103272"}}, {"type": "Feature", "geometry": {"type": "Point", "coordinates": [138.7545611, 35.8632192]}, "properties": {"id": "p00162", "name": "주차장", "kind": "surface", "capacity": null, "fee": null, "access": null, "operator": null, "near_route": "m067-r0", "mountain_no": 67, "dist_to_trailhead_m": 1112, "osm_id": "n1162927344"}}, {"type": "Feature", "geometry": {"type": "Point", "coordinates": [131.3370931, 32.778268]}, "properties": {"id": "p00163", "name": "주차장", "kind": "surface", "capacity": null, "fee": null, "access": null, "operator": null, "near_route": "m096-r3", "mountain_no": 96, "dist_to_trailhead_m": 381, "osm_id": "n1740966433"}}]}